{
    "links": {
        "self": "http://www.neowsapp.com/rest/v1/neo/54055088?api_key=iIulBulltgU6a56xZRHN4H3l9WmuAYTsLGpBGhQ2"
    },
    "id": "54055088",
    "neo_reference_id": "54055088",
    "name": "(2020 TP2)",
    "designation": "2020 TP2",
    "nasa_jpl_url": "http://ssd.jpl.nasa.gov/sbdb.cgi?sstr=54055088",
    "absolute_magnitude_h": 23.405,
    "estimated_diameter": {
        "kilometers": {
            "estimated_diameter_min": 0.0554057677,
            "estimated_diameter_max": 0.1238910629
        },
        "meters": {
            "estimated_diameter_min": 55.4057676727,
            "estimated_diameter_max": 123.8910628618
        },
        "miles": {
            "estimated_diameter_min": 0.0344275373,
            "estimated_diameter_max": 0.0769823136
        },
        "feet": {
            "estimated_diameter_min": 181.7774588114,
            "estimated_diameter_max": 406.4667546794
        }
    },
    "is_potentially_hazardous_asteroid": false,
    "close_approach_data": [
        {
            "close_approach_date": "2020-11-11",
            "close_approach_date_full": "2020-Nov-11 23:24",
            "epoch_date_close_approach": 1605137040000,
            "relative_velocity": {
                "kilometers_per_second": "13.0831130185",
                "kilometers_per_hour": "47099.2068664322",
                "miles_per_hour": "29265.6155109784"
            },
            "miss_distance": {
                "astronomical": "0.10892116",
                "lunar": "42.37033124",
                "kilometers": "16294373.5339292",
                "miles": "10124854.21825496"
            },
            "orbiting_body": "Earth"
        }
    ],
    "orbital_data": {
        "orbit_id": "4",
        "orbit_determination_date": "2020-11-04 05:22:52",
        "first_observation_date": "2020-10-09",
        "last_observation_date": "2020-11-04",
        "data_arc_in_days": 26,
        "observations_used": 21,
        "orbit_uncertainty": "8",
        "minimum_orbit_intersection": ".0208376",
        "jupiter_tisserand_invariant": "3.159",
        "epoch_osculation": "2459133.5",
        "eccentricity": ".6773219908390603",
        "semi_major_axis": "2.410188546184945",
        "inclination": "2.849084026635011",
        "ascending_node_longitude": "136.6469169479132",
        "orbital_period": "1366.705538058244",
        "perihelion_distance": ".7777148417854576",
        "perihelion_argument": "322.8865788438849",
        "aphelion_distance": "4.042662250584432",
        "perihelion_time": "2459198.956848813242",
        "mean_anomaly": "342.7581985171096",
        "mean_motion": ".2634071421935352",
        "equinox": "J2000",
        "orbit_class": {
            "orbit_class_type": "APO",
            "orbit_class_description": "Near-Earth asteroid orbits which cross the Earth’s orbit similar to that of 1862 Apollo",
            "orbit_class_range": "a (semi-major axis) > 1.0 AU; q (perihelion) < 1.017 AU"
        }
    },
    "is_sentry_object": false
}